[{"OBJECT_NAME":"STARLINK-34678","OBJECT_ID":"2025-194K","EPOCH":"2026-03-09T14:39:44.468640","MEAN_MOTION":15.05709231,"ECCENTRICITY":0.0002122,"INCLINATION":97.6022,"RA_OF_ASC_NODE":284.282,"ARG_OF_PERICENTER":90.3505,"MEAN_ANOMALY":269.7965,"EPHEMERIS_TYPE":0,"CLASSIFICATION_TYPE":"U","NORAD_CAT_ID":65443,"ELEMENT_SET_NO":999,"REV_AT_EPOCH":2963,"BSTAR":0.0020213,"MEAN_MOTION_DOT":0.00029272,"MEAN_MOTION_DDOT":0},{"OBJECT_NAME":"HAMSAT (VO-52)","OBJECT_ID":"2005-017B","EPOCH":"2026-03-09T22:34:09.009120","MEAN_MOTION":15.08773202,"ECCENTRICITY":0.00200128,"INCLINATION":97.9995,"RA_OF_ASC_NODE":87.8294,"ARG_OF_PERICENTER":17.3795,"MEAN_ANOMALY":342.8113,"EPHEMERIS_TYPE":0,"CLASSIFICATION_TYPE":"U","NORAD_CAT_ID":28650,"ELEMENT_SET_NO":999,"REV_AT_EPOCH":13179,"BSTAR":0.00045282519,"MEAN_MOTION_DOT":7.08e-5,"MEAN_MOTION_DDOT":0}]
